# Made by eph2tle, compiled Sep 27 2024 10:52:36
# Run at Sat Sep 28 08:57:16 2024
#
#    The following TLEs (Two-Line Elements) were generated by fitting
# a numerically-integrated ephemeris,  based on the orbit given below,
# to the SDP4/SGP4 models.  Each TLE is good for the interval between
# its epoch and the epoch of the subsequent TLE (usually one day).
# The maximum deviation between the numerically integrated ephemerides
# and the TLE-based ephemeris, in kilometers,  is given for each TLE
# as the "worst residual".
#
#    This fitting is done using the 'eph2tle' code packaged with Find_Orb.
# The code has details on how the TLEs were computed :
#
#    https://github.com/Bill-Gray/find_orb/eph2tle.cpp
#
#    Be warned:  the error given is that between the numerically
# integrated ephems and the TLE model.  There will usually be at
# least some additional difference between the ephems and the actual
# motion of the satellite,  especially if the ephemerides are based
# on a short arc.  If the following orbital elements say something
# like "[based on] 10 observations 2015 Jan. 1-13",  and the TLEs
# are for 2015 May,  the extrapolation may be tenuous at best.  If
# your application requires a specific level of accuracy,  you may
# want to contact me;  I can give you some idea as to the fit of the
# underlying data (and possibly TLEs based on newer data).
#
#   You can usually find the underlying observational data,  and the
# fitted orbit,  residuals,  ephemerides,  and sometimes some comments
# about the object,  among the pages listed at
#
#    https://www.projectpluto.com/pluto/mpecs/pseudo.htm
#
#    WARNING:  for this object,  "normal" TLEs cannot be fitted.  (This
# usually means an object with an hyperbolic or nearly-parabolic orbit.)
# For this and similar cases,   an alternative model is used,  in which
# most of the traditional TLE data is replaced by six signed 8-digit hex
# numbers.  These six numbers are a state vector,  numerically integrated
# using a simplified force model.  This is necessary for objects at L2 or
# L1,  and sometimes for objects in high orbits where the SDP4/SGP4 model
# fails.  Some documentation is in 'get_el.cpp' in the source code at
# https://www.github.com/Bill-Gray/sat_code ; look for 'hex' in that file,
# with the actual integration done in 'sdp4.cpp'.  But be aware:  it's my
# own extension,  doesn't work with other code,  and is therefore used
# only when necessary.
#
#    Also,  if you use a TLE outside the "correct" time range (between
# its MJD and that of the next TLE),  all bets are off.  I've carefully
# computed and minimized the worst error over the "correct" time frame,
# but the ephemeris may (or may not) diverge wildly outside of it.
#
# Ephem range: 60523.000000 60768.000000 1.000000
# Created Sat Sep 28 08:56:57 2024
# Ephemeris start:  1 Aug 2024  0:00:00
# Ephemeris end:    3 Apr 2025  0:00:00
# Times are all TDT
# Positions/velocities are in equatorial J2000
# Orbital elements:  SSA02
#    Perigee 2024 Sep 29.4960 +/- 5.64e-5 TT = 11:54:11 (JD 2460582.9960)
# Epoch 2024 Sep 27.0 TT = JDT 2460580.5                           Find_Orb
# M 337.3763473 +/- 0.0007            (J2000 equator)
# n   9.0640798 +/- 8.5e-5            Peri.  150.5670 +/- 0.0008
# a491723.56 +/- 3.07                 Node     5.9833 +/- 0.00012
# e   0.346472 +/- 3.03e-6            Incl.   28.5668 +/- 0.000035
# P  39.7165d                H 30.06  G  0.15   U  6.4
# q 321355.11 +/- 0.614    Q 662092.02 +/- 5.61
# 20 of 22 observations 2024 Sept. 12-27; mean residual 0".843
#
# Elements after  1 Oct 2024 :
#
#    Perigee 2024 Nov 8.116290 +/- 8.03e-5 TT =  2:47:27.4 (JD 2460622.616290)
# Epoch 2024 Nov 15.0 TT; AMR 0.015559 +/- 0.000797 m^2/kg         Find_Orb
# M 105.841301372 +/- 0.0028          (J2000 equator)
# n  15.375617904 +/- 0.000359        Peri.  269.826862 +/- 0.0020
# a345712.5304 +/- 5.38               Node     2.582348 +/- 0.00012
# e   0.34352379 +/- 3.08e-6          Incl.   26.746715 +/- 0.00006
# P  23.4133d                H 30.99  G  0.15   U  7.4
# q 226952.0514 +/- 4.33    Q 464473.0094 +/- 6.54
# 21 of 22 observations 2024 Oct. 14-Nov. 15; mean residual 0".344
#
# Elements after 21 Dec 2024 :
#
#    Perigee 2024 Nov 20.576798 +/- 0.000108 TT;  Constraint: A=.015
# dx:    -0.0257 +/- 0.00617   dy:     0.0374 +/- 0.00108
# dz:     0.0636 +/- 0.00268 m/s   T0: 2024 Dec 21.196 +/- 0.0632
# Epoch 2024 Nov 28.0 TT = JDT 2460642.5                           Find_Orb
# M  99.768007917 +/- 0.0024          (J2000 equator)
# n  13.440023003 +/- 0.000139        Peri.   83.792860 +/- 0.0026
# a378155.2767 +/- 2.61               Node     5.294343 +/- 0.00010
# e   0.34213971 +/- 6.05e-6          Incl.   30.559433 +/- 0.00008
# P  26.7852d                H 30.86  G  0.15   U  6.8
# q 248773.3376 +/- 4    Q 507537.2157 +/- 1.28
# 27 of 28 observations 2024 Oct. 14-2025 Jan. 11; mean residual 0".322
#
# Elements after 19 Jan 2025 :
#
# Orbital elements:  048ZZY
#    Perigee 2025 Jan 17.107827 +/- 0.0025399 TT =  2:35:16.2 (JD 2460692.607827)
# dx: -0.21974 +/- 0.30194   dy: 0.14474 +/- 0.063538
# dz: -0.011754 +/- 0.075986 m/s   T0: 2025 Jan 20.681 +/- 2.5565
# Epoch 2025 Jan 21.0 TT = JDT 2460696.5                           Find_Orb
# M  35.844981281 +/- 0.03720         (J2000 equator)
# n   9.209503731 +/- 0.0036624       Peri.  134.295651 +/- 0.04269
# a486533.4312 +/- 128.99             Node     4.304445 +/- 0.003719
# e   0.37997028 +/- 8.6602e-5        Incl.   30.482200 +/- 0.003600
# P  39.0893d                H 30.37  G  0.15   U  9.0
# q 301665.1860 +/- 44.03    Q 671401.6764 +/- 217.56
# 22 of 45 observations 2025 Jan. 7-Feb. 16; mean residual 1".657
#
# 1 NoradU COSPAR   Epoch.epoch     dn/dt/2  d2n/dt2/6 BSTAR    T El# C
# 2 NoradU Inclina RAAscNode Eccent  ArgPeri MeanAno  MeanMotion Rev# C

# Worst residual: 41.34 km
# MJD 60523.000000 (2024 Aug  1  0:00)
SSA02
1 79912U 24048ZZY 24213.99919926 +001CKDWD +004W8VFE +002LJ0MHH 24633
2 79912                          -00077SSD -0000742L +0000BRO6     05

# Worst residual: 69.99 km
# MJD 60524.000000 (2024 Aug  2  0:00)
SSA02
1 79912U 24048ZZY 24214.99919926 -000G3MCG +004OM2MP +002L6UZSH 24637
2 79912                          -0007NOUV -0001L0GN -0000F7UQ     08

# Worst residual: 36.78 km
# MJD 60525.000000 (2024 Aug  3  0:00)
SSA02
1 79912U 24048ZZY 24215.99919926 -0029NW4A +00454OWH +002E5JMKH 24636
2 79912                          -0007DKKU -0002VU6W -0001717U     04

# Worst residual: 23.82 km
# MJD 60526.000000 (2024 Aug  4  0:00)
SSA02
1 79912U 24048ZZY 24216.99919926 -003XAJ3C +003BR8V7 +0020XFFJH 24638
2 79912                          -0006BPFG -0003UL21 -0001U0LF     06

# Worst residual: 13.40 km
# MJD 60527.000000 (2024 Aug  5  0:00)
SSA02
1 79912U 24048ZZY 24217.99919926 -0059Y6UE +002BSBRT +001J3XRZH 24639
2 79912                          -0004WYMB -0004EQWO -0002930Y     05

# Worst residual: 10.60 km
# MJD 60528.000000 (2024 Aug  6  0:00)
SSA02
1 79912U 24048ZZY 24218.99919926 -006A8CDK +0018M44W +000YMNYRH 24635
2 79912                          -0003HWA2 -0004LROY -0002GFNX     04

# Worst residual: 8.02 km
# MJD 60529.000000 (2024 Aug  7  0:00)
SSA02
1 79912U 24048ZZY 24219.99919926 -006YQ0UO +000500LS +000D4OZEH 24630
2 79912                          -00026ZHG -0004IZ25 -0002HWDL     04

# Worst residual: 13.21 km
# MJD 60530.000000 (2024 Aug  8  0:00)
SSA02
1 79912U 24048ZZY 24220.99919926 -007CHXZ1 -000X1SU6 -00086N6SH 24634
2 79912                          -00010FS3 -000493FO -0002F4C9     08

# Worst residual: 24.95 km
# MJD 60531.000000 (2024 Aug  9  0:00)
SSA02
1 79912U 24048ZZY 24221.99919926 -007GFFTX -001W1RXX -000SFJGCH 24639
2 79912                          +00003GAA -0003TQZZ -000294QR     03

# Worst residual: 30.08 km
# MJD 60532.000000 (2024 Aug 10  0:00)
SSA02
1 79912U 24048ZZY 24222.99919926 -007ATPPQ -002QU2Y8 -001AXHR2H 24633
2 79912                          +00017JG3 -0003A9VO -00020OUO     07

# Worst residual: 36.60 km
# MJD 60533.000000 (2024 Aug 11  0:00)
SSA02
1 79912U 24048ZZY 24223.99919926 -006VB7WX -003GP6AT -001R7TEBH 24632
2 79912                          +0002E6PQ -0002PAV2 -0001QXH5     00

# Worst residual: 38.89 km
# MJD 60534.000000 (2024 Aug 12  0:00)
SSA02
1 79912U 24048ZZY 24224.99919926 -0065D6H2 -0041N2BN -002543RUH 24633
2 79912                          +0003LVUB -00025DZP -0001GSWC     03

# Worst residual: 39.00 km
# MJD 60535.000000 (2024 Aug 13  0:00)
SSA02
1 79912U 24048ZZY 24225.99919926 -005555U4 -004HSUN8 -002GGNU3H 24635
2 79912                          +0004RHOE -0001KUI7 -00015E89     07

# Worst residual: 40.76 km
# MJD 60536.000000 (2024 Aug 14  0:00)
SSA02
1 79912U 24048ZZY 24226.99919926 -003VAA0H -004SJVBM -002OPU8HH 24632
2 79912                          +0005U5G0 -0000VMWY -0000QNXL     02

# Worst residual: 44.84 km
# MJD 60537.000000 (2024 Aug 15  0:00)
SSA02
1 79912U 24048ZZY 24227.99919926 -002CKC0U -004WBMZY -002STTZZH 24634
2 79912                          +0006T0L9 +00001TXU -00006J0N     03

# Worst residual: 55.28 km
# MJD 60538.000000 (2024 Aug 16  0:00)
SSA02
1 79912U 24048ZZY 24228.99919926 -000MB5IF -004QUAM6 -002RAFG4H 24638
2 79912                          +0007JQHW +00019IAQ +0000KJ9H     06

# Worst residual: 45.61 km
# MJD 60539.000000 (2024 Aug 17  0:00)
SSA02
1 79912U 24048ZZY 24229.99919926 +0018BWOO -0049XY5V -002IJ7D7H 24630
2 79912                          +0007QY5F +0002NIL9 +0001GT7J     01

# Worst residual: 28.85 km
# MJD 60540.000000 (2024 Aug 18  0:00)
SSA02
1 79912U 24048ZZY 24230.99919926 +0030QUA9 -003HFB3L -00225AF7H 24633
2 79912                          +0006ZKCX +0003WBRG +0002AJHV     01

# Worst residual: 38.86 km
# MJD 60541.000000 (2024 Aug 19  0:00)
SSA02
1 79912U 24048ZZY 24231.99919926 +004IRJSR -002FR6JJ -001FQD85H 24636
2 79912                          +0005FSRW +0004QNT0 +0002U8OC     09

